{"spkid": "54338973", "covariance": {"epoch": "2459892.5", "labels": ["e", "q", "tp", "node", "peri", "i"], "data": [["1.773087109046558E-14", "-2.46000135749163E-14", "2.885055145760389E-12", "7.24454384243594E-12", "-2.926061855337563E-12", "-1.580055002326082E-13"], ["-2.46000135749163E-14", "3.419166153314646E-14", "-3.860908263084638E-12", "-1.001170729255028E-11", "4.108120122411123E-12", "2.270375851137166E-13"], ["2.885055145760389E-12", "-3.860908263084638E-12", "2.305890165449332E-9", "1.099189241507077E-9", "8.908220195409706E-10", "7.820004863771449E-11"], ["7.24454384243594E-12", "-1.001170729255028E-11", "1.099189241507077E-9", "1.202466319515006E-8", "-1.024544199092498E-8", "-1.261893938792889E-10"], ["-2.926061855337563E-12", "4.108120122411123E-12", "8.908220195409706E-10", "-1.024544199092498E-8", "1.045609896922871E-8", "1.538940793422156E-10"], ["-1.580055002326082E-13", "2.270375851137166E-13", "7.820004863771449E-11", "-1.261893938792889E-10", "1.538940793422156E-10", "3.531215232061831E-11"]], "elements": [{"label": "e", "name": "e", "sigma": 1.3315731707445e-07, "units": null, "title": "eccentricity", "value": ".2491019613890491"}, {"label": "q", "title": "perihelion distance", "value": "1.027376640921024", "units": "au", "name": "q", "sigma": 1.84909874082339e-07}, {"name": "tp", "sigma": 4.80196851869036e-05, "units": "TDB", "title": "time of perihelion passage", "value": "2460038.781240305593", "label": "tp"}, {"label": "node", "value": "188.0709848839354", "title": "longitude of the ascending node", "units": "deg", "name": "om", "sigma": 0.000109657025288625}, {"value": "353.4516585690231", "title": "argument of perihelion", "units": "deg", "sigma": 0.000102255068183581, "name": "w", "label": "peri"}, {"sigma": 5.94240290796731e-06, "name": "i", "title": "inclination", "value": "5.135112383056604", "units": "deg", "label": "i"}]}, "elements": [{"label": "e", "sigma": "1.3336E-7", "name": "e", "units": null, "title": "eccentricity", "value": ".2491958338985693"}, {"label": "a", "name": "a", "sigma": "1.0288E-8", "title": "semi-major axis", "value": "1.368770234384945", "units": "au"}, {"label": "q", "sigma": "1.8431E-7", "name": "q", "value": "1.027678394411849", "title": "perihelion distance", "units": "au"}, {"sigma": "5.9424E-6", "name": "i", "title": "inclination; angle with respect to x-y ecliptic plane", "value": "5.134032411443241", "units": "deg", "label": "i"}, {"label": "node", "sigma": ".00010966", "name": "om", "units": "deg", "title": "longitude of the ascending node", "value": "188.0343951395955"}, {"label": "peri", "title": "argument of perihelion", "value": "353.4797219610722", "units": "deg", "name": "w", "sigma": ".00010222"}, {"title": "mean anomaly", "value": "355.0318233795682", "units": "deg", "sigma": "3.2346E-5", "name": "ma", "label": "M"}, {"label": "tp", "sigma": "5.2597E-5", "name": "tp", "units": "TDB", "title": "time of perihelion passage", "value": "2461208.572141782181"}, {"name": "per", "sigma": "6.5946E-6", "title": "sidereal orbital period", "value": "584.9170155574153", "units": "d", "label": "period"}, {"label": "n", "name": "n", "sigma": "6.9391E-9", "units": "deg/d", "value": ".6154719223835993", "title": "mean motion"}, {"label": "Q", "sigma": "1.2852E-8", "name": "ad", "title": "aphelion distance", "value": "1.709862074358042", "units": "au"}], "epoch": "2461200.5"}